{
  "norad_id": 52998,
  "name": "STARLINK-4254",
  "history": [
    {
      "epoch": "2026-03-28T03:54:43.690752Z",
      "apogee_km": 540.8689529341564,
      "perigee_km": 538.7658947893033,
      "latitude_deg": 3.857354453515316e-05,
      "longitude_deg": 126.83558250840137,
      "height_km": 540.8664541567146,
      "semi_major_axis_km": 6917.95442386173,
      "eccentricity": 0.000152,
      "inclination_deg": 53.2205,
      "raan_deg": 11.105,
      "arg_perigee_deg": 98.3781,
      "mean_anomaly_deg": 261.7384,
      "mean_motion_rev_day": 15.08815779
    },
    {
      "epoch": "2026-03-29T03:45:30.323808Z",
      "apogee_km": 540.6801152696207,
      "perigee_km": 538.8122868053415,
      "latitude_deg": 2.7933930426138382e-05,
      "longitude_deg": 123.69713774661672,
      "height_km": 540.6907136479757,
      "semi_major_axis_km": 6917.883201037481,
      "eccentricity": 0.000135,
      "inclination_deg": 53.219,
      "raan_deg": 6.6402,
      "arg_perigee_deg": 92.9845,
      "mean_anomaly_deg": 267.1302,
      "mean_motion_rev_day": 15.0883908
    }
  ]
}